CCSDS_OMM_VERS = 2.0
CREATION_DATE  = 
ORIGINATOR     = 

OBJECT_NAME    = SL-16 R/B
OBJECT_ID      = 1993-016B
CENTER_NAME    = EARTH
REF_FRAME      = TEME
TIME_SYSTEM    = UTC
MEAN_ELEMENT_THEORY = SGP/SGP4

EPOCH          = 2025-12-28T17:58:38.856576
MEAN_MOTION    = 14.15294684
ECCENTRICITY   = .00080495
INCLINATION    = 71.0086
RA_OF_ASC_NODE = 4.1785
ARG_OF_PERICENTER = 65.4158
MEAN_ANOMALY   = 294.7803

EPHEMERIS_TYPE = 0
CLASSIFICATION_TYPE = U
NORAD_CAT_ID   = 22566
ELEMENT_SET_NO = 999
REV_AT_EPOCH   = 69213
BSTAR          = .10518767E-3
MEAN_MOTION_DOT = .157E-5
MEAN_MOTION_DDOT = 0

CCSDS_OMM_VERS = 2.0
CREATION_DATE  = 
ORIGINATOR     = 

OBJECT_NAME    = COSMOS 2242
OBJECT_ID      = 1993-024A
CENTER_NAME    = EARTH
REF_FRAME      = TEME
TIME_SYSTEM    = UTC
MEAN_ELEMENT_THEORY = SGP/SGP4

EPOCH          = 2025-12-28T08:27:53.731872
MEAN_MOTION    = 14.96174699
ECCENTRICITY   = .00162183
INCLINATION    = 82.5195
RA_OF_ASC_NODE = 334.9208
ARG_OF_PERICENTER = 178.9470
MEAN_ANOMALY   = 181.1789

EPHEMERIS_TYPE = 0
CLASSIFICATION_TYPE = U
NORAD_CAT_ID   = 22626
ELEMENT_SET_NO = 999
REV_AT_EPOCH   = 76972
BSTAR          = .26988529E-3
MEAN_MOTION_DOT = .3073E-4
MEAN_MOTION_DDOT = 0

CCSDS_OMM_VERS = 2.0
CREATION_DATE  = 
ORIGINATOR     = 

OBJECT_NAME    = SL-16 R/B
OBJECT_ID      = 1993-059B
CENTER_NAME    = EARTH
REF_FRAME      = TEME
TIME_SYSTEM    = UTC
MEAN_ELEMENT_THEORY = SGP/SGP4

EPOCH          = 2025-12-28T21:29:22.140096
MEAN_MOTION    = 14.17218245
ECCENTRICITY   = .00188019
INCLINATION    = 70.9892
RA_OF_ASC_NODE = 160.4179
ARG_OF_PERICENTER = 312.8931
MEAN_ANOMALY   = 47.0614

EPHEMERIS_TYPE = 0
CLASSIFICATION_TYPE = U
NORAD_CAT_ID   = 22803
ELEMENT_SET_NO = 999
REV_AT_EPOCH   = 66950
BSTAR          = .12944001E-3
MEAN_MOTION_DOT = .214E-5
MEAN_MOTION_DDOT = 0

CCSDS_OMM_VERS = 2.0
CREATION_DATE  = 
ORIGINATOR     = 

OBJECT_NAME    = ARIANE 40 R/B
OBJECT_ID      = 1993-061H
CENTER_NAME    = EARTH
REF_FRAME      = TEME
TIME_SYSTEM    = UTC
MEAN_ELEMENT_THEORY = SGP/SGP4

EPOCH          = 2025-12-28T19:40:10.994016
MEAN_MOTION    = 14.32812509
ECCENTRICITY   = .00116526
INCLINATION    = 98.5055
RA_OF_ASC_NODE = 68.0554
ARG_OF_PERICENTER = 130.9158
MEAN_ANOMALY   = 229.3037

EPHEMERIS_TYPE = 0
CLASSIFICATION_TYPE = U
NORAD_CAT_ID   = 22830
ELEMENT_SET_NO = 999
REV_AT_EPOCH   = 68395
BSTAR          = .13782236E-3
MEAN_MOTION_DOT = .333E-5
MEAN_MOTION_DDOT = 0

CCSDS_OMM_VERS = 2.0
CREATION_DATE  = 
ORIGINATOR     = 

OBJECT_NAME    = COSMOS 2278
OBJECT_ID      = 1994-023A
CENTER_NAME    = EARTH
REF_FRAME      = TEME
TIME_SYSTEM    = UTC
MEAN_ELEMENT_THEORY = SGP/SGP4

EPOCH          = 2025-12-28T22:39:33.532704
MEAN_MOTION    = 14.14350272
ECCENTRICITY   = .00076648
INCLINATION    = 71.0536
RA_OF_ASC_NODE = 323.1074
ARG_OF_PERICENTER = 150.2014
MEAN_ANOMALY   = 209.9547

EPHEMERIS_TYPE = 0
CLASSIFICATION_TYPE = U
NORAD_CAT_ID   = 23087
ELEMENT_SET_NO = 999
REV_AT_EPOCH   = 63480
BSTAR          = .16267906E-3
MEAN_MOTION_DOT = .264E-5
MEAN_MOTION_DDOT = 0

CCSDS_OMM_VERS = 2.0
CREATION_DATE  = 
ORIGINATOR     = 

OBJECT_NAME    = SL-16 R/B
OBJECT_ID      = 1994-023B
CENTER_NAME    = EARTH
REF_FRAME      = TEME
TIME_SYSTEM    = UTC
MEAN_ELEMENT_THEORY = SGP/SGP4

EPOCH          = 2025-12-28T22:50:58.911936
MEAN_MOTION    = 14.14998613
ECCENTRICITY   = .0002273
INCLINATION    = 70.9972
RA_OF_ASC_NODE = 219.4402
ARG_OF_PERICENTER = 1.4541
MEAN_ANOMALY   = 358.6587

EPHEMERIS_TYPE = 0
CLASSIFICATION_TYPE = U
NORAD_CAT_ID   = 23088
ELEMENT_SET_NO = 999
REV_AT_EPOCH   = 63608
BSTAR          = -.25171073E-4
MEAN_MOTION_DOT = -.96E-6
MEAN_MOTION_DDOT = 0

CCSDS_OMM_VERS = 2.0
CREATION_DATE  = 
ORIGINATOR     = 

OBJECT_NAME    = SL-16 R/B
OBJECT_ID      = 1994-074B
CENTER_NAME    = EARTH
REF_FRAME      = TEME
TIME_SYSTEM    = UTC
MEAN_ELEMENT_THEORY = SGP/SGP4

EPOCH          = 2025-12-28T23:26:13.602912
MEAN_MOTION    = 14.79309406
ECCENTRICITY   = .00080443
INCLINATION    = 97.7188
RA_OF_ASC_NODE = 31.6345
ARG_OF_PERICENTER = 91.5896
MEAN_ANOMALY   = 330.7467

EPHEMERIS_TYPE = 0
CLASSIFICATION_TYPE = U
NORAD_CAT_ID   = 23343
ELEMENT_SET_NO = 999
REV_AT_EPOCH   = 67679
BSTAR          = .10711932E-3
MEAN_MOTION_DOT = .748E-5
MEAN_MOTION_DDOT = 0

CCSDS_OMM_VERS = 2.0
CREATION_DATE  = 
ORIGINATOR     = 

OBJECT_NAME    = SL-16 R/B
OBJECT_ID      = 1994-077B
CENTER_NAME    = EARTH
REF_FRAME      = TEME
TIME_SYSTEM    = UTC
MEAN_ELEMENT_THEORY = SGP/SGP4

EPOCH          = 2025-12-28T19:40:43.277376
MEAN_MOTION    = 14.15551098
ECCENTRICITY   = .00050387
INCLINATION    = 70.9825
RA_OF_ASC_NODE = 141.5854
ARG_OF_PERICENTER = 271.6847
MEAN_ANOMALY   = 88.3699

EPHEMERIS_TYPE = 0
CLASSIFICATION_TYPE = U
NORAD_CAT_ID   = 23405
ELEMENT_SET_NO = 999
REV_AT_EPOCH   = 60620
BSTAR          = -.95511488E-4
MEAN_MOTION_DOT = -.235E-5
MEAN_MOTION_DDOT = 0

CCSDS_OMM_VERS = 2.0
CREATION_DATE  = 
ORIGINATOR     = 

OBJECT_NAME    = ARIANE 40+ R/B
OBJECT_ID      = 1995-021B
CENTER_NAME    = EARTH
REF_FRAME      = TEME
TIME_SYSTEM    = UTC
MEAN_ELEMENT_THEORY = SGP/SGP4

EPOCH          = 2025-12-28T22:50:19.155840
MEAN_MOTION    = 14.39708675
ECCENTRICITY   = .00066144
INCLINATION    = 98.4631
RA_OF_ASC_NODE = 70.3434
ARG_OF_PERICENTER = 3.8448
MEAN_ANOMALY   = 170.0073

EPHEMERIS_TYPE = 0
CLASSIFICATION_TYPE = U
NORAD_CAT_ID   = 23561
ELEMENT_SET_NO = 999
REV_AT_EPOCH   = 60906
BSTAR          = .16354197E-3
MEAN_MOTION_DOT = .468E-5
MEAN_MOTION_DDOT = 0

CCSDS_OMM_VERS = 2.0
CREATION_DATE  = 
ORIGINATOR     = 

OBJECT_NAME    = SL-16 R/B
OBJECT_ID      = 1995-058B
CENTER_NAME    = EARTH
REF_FRAME      = TEME
TIME_SYSTEM    = UTC
MEAN_ELEMENT_THEORY = SGP/SGP4

EPOCH          = 2025-12-28T23:09:17.347104
MEAN_MOTION    = 14.15481591
ECCENTRICITY   = .00144644
INCLINATION    = 71.0218
RA_OF_ASC_NODE = 328.7392
ARG_OF_PERICENTER = 233.5174
MEAN_ANOMALY   = 126.4618

EPHEMERIS_TYPE = 0
CLASSIFICATION_TYPE = U
NORAD_CAT_ID   = 23705
ELEMENT_SET_NO = 999
REV_AT_EPOCH   = 55784
BSTAR          = .51547383E-4
MEAN_MOTION_DOT = .53E-6
MEAN_MOTION_DDOT = 0

CCSDS_OMM_VERS = 2.0
CREATION_DATE  = 
ORIGINATOR     = 

OBJECT_NAME    = SL-16 R/B
OBJECT_ID      = 1996-051B
CENTER_NAME    = EARTH
REF_FRAME      = TEME
TIME_SYSTEM    = UTC
MEAN_ELEMENT_THEORY = SGP/SGP4

EPOCH          = 2025-12-28T08:27:59.734944
MEAN_MOTION    = 14.12398014
ECCENTRICITY   = .00194482
INCLINATION    = 70.7597
RA_OF_ASC_NODE = 326.2350
ARG_OF_PERICENTER = 242.2059
MEAN_ANOMALY   = 117.7089

EPHEMERIS_TYPE = 0
CLASSIFICATION_TYPE = U
NORAD_CAT_ID   = 24298
ELEMENT_SET_NO = 999
REV_AT_EPOCH   = 51157
BSTAR          = .35975271E-4
MEAN_MOTION_DOT = .17E-6
MEAN_MOTION_DDOT = 0

CCSDS_OMM_VERS = 2.0
CREATION_DATE  = 
ORIGINATOR     = 

OBJECT_NAME    = ORBVIEW 2 (SEASTAR)
OBJECT_ID      = 1997-037A
CENTER_NAME    = EARTH
REF_FRAME      = TEME
TIME_SYSTEM    = UTC
MEAN_ELEMENT_THEORY = SGP/SGP4

EPOCH          = 2025-12-28T22:44:31.013952
MEAN_MOTION    = 14.35429768
ECCENTRICITY   = .00011997
INCLINATION    = 98.8466
RA_OF_ASC_NODE = 160.4309
ARG_OF_PERICENTER = 265.6713
MEAN_ANOMALY   = 94.4335

EPHEMERIS_TYPE = 0
CLASSIFICATION_TYPE = U
NORAD_CAT_ID   = 24883
ELEMENT_SET_NO = 999
REV_AT_EPOCH   = 49832
BSTAR          = .18693922E-3
MEAN_MOTION_DOT = .49E-5
MEAN_MOTION_DDOT = 0

