SL-16 R/B               
1 22566U 93016B   25362.74906084  .00000157  00000+0  10519-3 0  9997
2 22566  71.0086   4.1785 0008049  65.4158 294.7803 14.15294684692138
COSMOS 2242             
1 22626U 93024A   25362.35270523  .00003073  00000+0  26989-3 0  9990
2 22626  82.5195 334.9208 0016218 178.9470 181.1789 14.96174699769725
SL-16 R/B               
1 22803U 93059B   25362.89539514  .00000214  00000+0  12944-3 0  9992
2 22803  70.9892 160.4179 0018801 312.8931  47.0614 14.17218245669508
ARIANE 40 R/B           
1 22830U 93061H   25362.81957169  .00000333  00000+0  13782-3 0  9990
2 22830  98.5055  68.0554 0011652 130.9158 229.3037 14.32812509683951
COSMOS 2278             
1 23087U 94023A   25362.94413811  .00000264  00000+0  16268-3 0  9994
2 23087  71.0536 323.1074 0007664 150.2014 209.9547 14.14350272634806
SL-16 R/B               
1 23088U 94023B   25362.95207074 -.00000096  00000+0 -25171-4 0  9997
2 23088  70.9972 219.4402 0002273   1.4541 358.6587 14.14998613636089
SL-16 R/B               
1 23343U 94074B   25362.97654633  .00000748  00000+0  10712-3 0  9992
2 23343  97.7188  31.6345 0008044  91.5896 330.7467 14.79309406676791
SL-16 R/B               
1 23405U 94077B   25362.81994534 -.00000235  00000+0 -95511-4 0  9998
2 23405  70.9825 141.5854 0005038 271.6847  88.3699 14.15551098606202
ARIANE 40+ R/B          
1 23561U 95021B   25362.95161060  .00000468  00000+0  16354-3 0  9999
2 23561  98.4631  70.3434 0006614   3.8448 170.0073 14.39708675609064
SL-16 R/B               
1 23705U 95058B   25362.96478411  .00000053  00000+0  51547-4 0  9995
2 23705  71.0218 328.7392 0014464 233.5174 126.4618 14.15481591557842
SL-16 R/B               
1 24298U 96051B   25362.35277471  .00000017  00000+0  35975-4 0  9990
2 24298  70.7597 326.2350 0019448 242.2059 117.7089 14.12398014511578
ORBVIEW 2 (SEASTAR)     
1 24883U 97037A   25362.94758118  .00000490  00000+0  18694-3 0  9995
2 24883  98.8466 160.4309 0001199 265.6713  94.4335 14.35429768498324
